NORAD_CAT_ID,OBJECT_NAME,OBJECT_TYPE,EPOCH,MEAN_MOTION,ECCENTRICITY,INCLINATION,RA_OF_ASC_NODE,ARG_OF_PERICENTER,MEAN_ANOMALY,BSTAR,MEAN_MOTION_DOT,MEAN_MOTION_DDOT,TLE_LINE0,TLE_LINE1,TLE_LINE2,SEMIMAJOR_AXIS,PERIOD,APOGEE,PERIGEE,DECAYED
49767.0,STARLINK-3192,PAYLOAD,2023-06-09 04:22:18,15.08839554,9.69e-05,53.2177,328.5283,85.3721,274.7382,1.2215e-05,-9.3e-07,0.0,0 STARLINK-3192,1 49767U 21115AV  23160.18216259 -.00000093  00000-0  12215-4 0  9997,2 49767  53.2177 328.5283 0000969  85.3721 274.7382 15.08839554 84037,6917.882,95.438,540.417,539.076,0.0
49767.0,STARLINK-3192,PAYLOAD,2023-06-09 15:30:00,15.08837799,8.86e-05,53.2174,326.4483,94.1075,266.0019,8.9938e-05,1.144e-05,0.0,0 STARLINK-3192,1 49767U 21115AV  23160.64584234  .00001144  00000-0  89938-4 0  9992,2 49767  53.2174 326.4483 0000886  94.1075 266.0019 15.08837799 84109,6917.887,95.438,540.365,539.139,0.0
49767.0,STARLINK-3192,PAYLOAD,2023-06-10 04:13:05,15.08840142,8.45e-05,53.2172,324.0702,92.5076,267.6013,0.00010732,1.421e-05,0.0,0 STARLINK-3192,1 49767U 21115AV  23161.17576017  .00001421  00000-0  10732-3 0  9994,2 49767  53.2172 324.0702 0000845  92.5076 267.6013 15.08840142 85291,6917.88,95.438,540.33,539.16,0.0
49767.0,STARLINK-3192,PAYLOAD,2023-06-10 15:20:47,15.08838038,8.85e-05,53.2171,321.9886,88.6621,271.4472,6.8755e-05,8.07e-06,0.0,0 STARLINK-3192,1 49767U 21115AV  23161.63944272  .00000807  00000-0  68755-4 0  9993,2 49767  53.2171 321.9886 0000885  88.6621 271.4472 15.08838038 84253,6917.886,95.438,540.364,539.139,0.0
49767.0,STARLINK-3192,PAYLOAD,2023-06-11 04:03:53,15.08837916,8.5e-05,53.2174,319.6089,90.1432,269.9657,-3.1501e-05,-7.89e-06,0.0,0 STARLINK-3192,1 49767U 21115AV  23162.16936607 -.00000789  00000-0 -31501-4 0  9995,2 49767  53.2174 319.6089 0000850  90.1432 269.9657 15.08837916 85448,6917.887,95.438,540.34,539.164,0.0
49767.0,STARLINK-3192,PAYLOAD,2023-06-11 10:25:25,15.0883824,9.94e-05,53.2169,318.422,65.5653,294.5443,2.7448e-05,1.49e-06,0.0,0 STARLINK-3192,1 49767U 21115AV  23162.43432545  .00000149  00000-0  27448-4 0  9990,2 49767  53.2169 318.4220 0000994  65.5653 294.5443 15.08838240 84375,6917.886,95.438,540.438,539.063,0.0
49767.0,STARLINK-3192,PAYLOAD,2023-06-11 16:46:57,15.08842461,8.88e-05,53.2164,317.2325,67.8322,292.2764,5.7583e-05,6.29e-06,0.0,0 STARLINK-3192,1 49767U 21115AV  23162.69928096  .00000629  00000-0  57583-4 0  9995,2 49767  53.2164 317.2325 0000888  67.8322 292.2764 15.08842461 85522,6917.873,95.437,540.352,539.124,0.0
49767.0,STARLINK-3192,PAYLOAD,2023-06-11 19:57:43,15.08843886,8.63e-05,53.2165,316.6388,64.616,295.4921,8.0876e-05,1e-05,0.0,0 STARLINK-3192,1 49767U 21115AV  23162.83175885  .00001000  00000-0  80876-4 0  9996,2 49767  53.2165 316.6388 0000863  64.6160 295.4921 15.08843886 84434,6917.869,95.437,540.331,539.136,0.0
49767.0,STARLINK-3192,PAYLOAD,2023-06-12 16:37:45,15.08838521,9.59e-05,53.2171,312.7691,83.7994,276.3107,4.184e-05,3.78e-06,0.0,0 STARLINK-3192,1 49767U 21115AV  23163.69288316  .00000378  00000-0  41840-4 0  9990,2 49767  53.2171 312.7691 0000959  83.7994 276.3107 15.08838521 84566,6917.885,95.438,540.413,539.086,0.0
49767.0,STARLINK-3192,PAYLOAD,2023-06-13 10:06:59,15.08833082,0.0001026,53.2175,309.4973,86.7174,273.3936,5.156e-05,5.33e-06,0.0,0 STARLINK-3192,1 49767U 21115AV  23164.42152749  .00000533  00000-0  51560-4 0  9995,2 49767  53.2175 309.4973 0001026  86.7174 273.3936 15.08833082 84671,6917.902,95.438,540.476,539.057,0.0
49767.0,STARLINK-3192,PAYLOAD,2023-06-13 19:39:18,15.08842937,0.000102,53.2186,307.7119,98.5155,261.5953,2.1322e-06,-2.54e-06,0.0,0 STARLINK-3192,1 49767U 21115AV  23164.81896245 -.00000254  00000-0  21322-5 0  9999,2 49767  53.2186 307.7119 0001020  98.5155 261.5953 15.08842937 85847,6917.871,95.437,540.442,539.031,0.0
49767.0,STARLINK-3192,PAYLOAD,2023-06-14 09:57:47,15.08838869,9.26e-05,53.2176,305.0365,95.154,264.9557,-4.4669e-05,-9.99e-06,0.0,0 STARLINK-3192,1 49767U 21115AV  23165.41512831 -.00000999  00000-0 -44669-4 0  9997,2 49767  53.2176 305.0365 0000926  95.1540 264.9557 15.08838869 85931,6917.884,95.438,540.389,539.108,0.0
49767.0,STARLINK-3192,PAYLOAD,2023-06-14 17:54:42,15.08844668,9.33e-05,53.218,303.5513,91.3292,268.7807,7.1746e-06,-1.74e-06,0.0,0 STARLINK-3192,1 49767U 21115AV  23165.74632263 -.00000174  00000-0  71746-5 0  9996,2 49767  53.2180 303.5513 0000933  91.3292 268.7807 15.08844668 85983,6917.866,95.437,540.377,539.086,0.0
49767.0,STARLINK-3192,PAYLOAD,2023-06-14 19:30:05,15.08846437,9.3e-05,53.2174,303.2537,92.4543,267.6556,-9.9852e-06,-4.47e-06,0.0,0 STARLINK-3192,1 49767U 21115AV  23165.81256194 -.00000447  00000-0 -99852-5 0  9991,2 49767  53.2174 303.2537 0000930  92.4543 267.6556 15.08846437 84880,6917.861,95.437,540.369,539.082,0.0
49767.0,STARLINK-3192,PAYLOAD,2023-06-15 09:48:34,15.08832948,0.0001047,53.2175,300.5775,93.3177,266.7935,6.4833e-06,-1.85e-06,0.0,0 STARLINK-3192,1 49767U 21115AV  23166.40873172 -.00000185  00000-0  64833-5 0  9997,2 49767  53.2175 300.5775 0001047  93.3177 266.7935 15.08832948 86085,6917.902,95.438,540.491,539.043,0.0
49767.0,STARLINK-3192,PAYLOAD,2023-06-15 12:59:20,15.08834265,0.0001013,53.2175,299.9827,94.5655,265.5453,1.1539e-05,-1.04e-06,0.0,0 STARLINK-3192,1 49767U 21115AV  23166.54121115 -.00000104  00000-0  11539-4 0  9990,2 49767  53.2175 299.9827 0001013  94.5655 265.5453 15.08834265 84995,6917.898,95.438,540.464,539.062,0.0
49767.0,STARLINK-3192,PAYLOAD,2023-06-15 17:45:29,15.08838771,9.98e-05,53.2179,299.0907,87.2391,272.8715,5.0992e-05,5.24e-06,0.0,0 STARLINK-3192,1 49767U 21115AV  23166.73992781  .00000524  00000-0  50992-4 0  9997,2 49767  53.2179 299.0907 0000998  87.2391 272.8715 15.08838771 85029,6917.884,95.438,540.44,539.059,0.0
49767.0,STARLINK-3192,PAYLOAD,2023-06-16 01:42:25,15.08840047,9.7e-05,53.218,297.6038,90.0256,270.0847,8.3368e-06,-1.55e-06,0.0,0 STARLINK-3192,1 49767U 21115AV  23167.07112836 -.00000155  00000-0  83368-5 0  9995,2 49767  53.2180 297.6038 0000970  90.0256 270.0847 15.08840047 86185,6917.88,95.438,540.416,539.074,0.0
49767.0,STARLINK-3192,PAYLOAD,2023-06-16 12:50:06,15.0884666,0.0001192,53.2184,295.5225,104.1891,255.9234,0.00016589,2.354e-05,0.0,0 STARLINK-3192,1 49767U 21115AV  23167.53479952  .00002354  00000-0  16589-3 0  9992,2 49767  53.2184 295.5225 0001192 104.1891 255.9234 15.08846660 85147,6917.86,95.437,540.55,538.9,0.0
49767.0,STARLINK-3192,PAYLOAD,2023-06-16 14:25:29,15.08853439,8.88e-05,53.2183,295.2252,92.7459,267.3634,0.0001368,1.891e-05,0.0,0 STARLINK-3192,1 49767U 21115AV  23167.60103629  .00001891  00000-0  13680-3 0  9999,2 49767  53.2183 295.2252 0000888  92.7459 267.3634 15.08853439 86263,6917.839,95.437,540.319,539.09,0.0
49767.0,STARLINK-3192,PAYLOAD,2023-06-16 17:36:15,15.08841559,0.0001001,53.2177,294.6299,99.2361,260.8745,0.00038269,5.808e-05,0.0,0 STARLINK-3192,1 49767U 21115AV  23167.73351710  .00005808  00000-0  38269-3 0  9991,2 49767  53.2177 294.6299 0001001  99.2361 260.8745 15.08841559 85172,6917.876,95.437,540.433,539.048,0.0
49767.0,STARLINK-3192,PAYLOAD,2023-06-17 01:33:12,15.08839365,0.0001826,53.218,293.1434,77.1338,282.9858,6.8826e-05,8.07e-06,0.0,0 STARLINK-3192,1 49767U 21115AV  23168.06472851  .00000807  00000-0  68826-4 0  9995,2 49767  53.2180 293.1434 0001826  77.1338 282.9858 15.08839365 86336,6917.882,95.438,541.011,538.484,0.0
49767.0,STARLINK-3192,PAYLOAD,2023-06-17 09:30:09,15.08819481,9.84e-05,53.2184,291.6571,79.272,280.8383,-0.000116,-2.132e-05,0.0,0 STARLINK-3192,1 49767U 21115AV  23168.39594582 -.00002132  00000-0 -11600-3 0  9999,2 49767  53.2184 291.6571 0000984  79.2720 280.8383 15.08819481 86389,6917.943,95.439,540.489,539.127,0.0
49767.0,STARLINK-3192,PAYLOAD,2023-06-17 17:27:05,15.08825182,9.43e-05,53.2173,290.1695,74.2589,285.8507,-6.4022e-05,-1.306e-05,0.0,0 STARLINK-3192,1 49767U 21115AV  23168.72714387 -.00001306  00000-0 -64022-4 0  9992,2 49767  53.2173 290.1695 0000943  74.2589 285.8507 15.08825182 86435,6917.926,95.438,540.443,539.138,0.0
49767.0,STARLINK-3192,PAYLOAD,2023-06-18 01:24:00,15.08833796,0.0001016,53.2183,288.6835,75.8599,284.2506,3.0562e-05,1.99e-06,0.0,0 STARLINK-3192,1 49767U 21115AV  23169.05833878  .00000199  00000-0  30562-4 0  9995,2 49767  53.2183 288.6835 0001016  75.8599 284.2506 15.08833796 86481,6917.899,95.438,540.467,539.061,0.0
49767.0,STARLINK-3192,PAYLOAD,2023-06-18 07:45:32,15.08837768,0.0001037,53.2178,287.4934,76.1803,283.9305,4.5446e-05,4.36e-06,0.0,0 STARLINK-3192,1 49767U 21115AV  23169.32329472  .00000436  00000-0  45446-4 0  9996,2 49767  53.2178 287.4934 0001037  76.1803 283.9305 15.08837768 85415,6917.887,95.438,540.47,539.035,0.0
49767.0,STARLINK-3192,PAYLOAD,2023-06-18 14:07:04,15.08847216,0.0001022,53.2173,286.3042,71.2066,288.9037,0.00022891,3.358e-05,0.0,0 STARLINK-3192,1 49767U 21115AV  23169.58825107  .00003358  00000-0  22891-3 0  9994,2 49767  53.2173 286.3042 0001022  71.2066 288.9037 15.08847216 86562,6917.858,95.437,540.43,539.016,0.0
49767.0,STARLINK-3192,PAYLOAD,2023-06-19 10:47:06,15.08847368,0.0001089,53.2168,282.4389,59.5366,300.5734,0.00043436,6.633e-05,0.0,0 STARLINK-3192,1 49767U 21115AV  23170.44937557  .00006633  00000-0  43436-3 0  9991,2 49767  53.2168 282.4389 0001089  59.5366 300.5734 15.08847368 86699,6917.858,95.437,540.476,538.97,0.0
49767.0,STARLINK-3192,PAYLOAD,2023-06-19 13:57:52,15.08852044,0.0001111,53.2159,281.8447,53.965,306.1445,0.00037669,5.714e-05,0.0,0 STARLINK-3192,1 49767U 21115AV  23170.58185244  .00005714  00000-0  37669-3 0  9994,2 49767  53.2159 281.8447 0001111  53.9650 306.1445 15.08852044 85605,6917.844,95.437,540.477,538.94,0.0
49767.0,STARLINK-3192,PAYLOAD,2023-06-20 10:37:52,15.08843444,0.0001096,53.2165,277.9791,55.3449,304.7646,0.00012228,1.659e-05,0.0,0 STARLINK-3192,1 49767U 21115AV  23171.44297352  .00001659  00000-0  12228-3 0  9992,2 49767  53.2165 277.9791 0001096  55.3449 304.7646 15.08843444 85739,6917.87,95.437,540.493,538.977,0.0
